{
  "type": "FeatureCollection",
  "features": [
    {
      "type": "Feature",
      "geometry": {
        "type": "Point",
        "coordinates": [
          144.505683,
          43.718193
        ]
      },
      "properties": {
        "id": "TEMP_EVENT_MIDORI_FESTIVAL_20100530",
        "name": "みどりのフェスティバル",
        "date": "2010-05-30",
        "location_id": "LOC_MIDORI_STATION_PLAZA",
        "activities": [
          "クマゲラ太鼓（緑小学校児童）",
          "丸太転がし選手権",
          "みどりのウォーキング"
        ],
        "confidence": "A",
        "evidence_type": "contemporary_record",
        "historical_status": "confirmed",
        "source_ids": [
          "SRC_KANKOU_BLOG_20100607",
          "SRC_USER_TESTIMONY_2026",
          "SRC_KUMAGERA_PHOTO",
          "SRC_MIDORI_FESTIVAL_POSTER_2017"
        ],
        "note": "MIDORI_STATION_REALITY_SPEC v1.1 §10: promoted from confidence B to A after directly reaching the original blog post (きよさと観光協会, posted 2010-06-07 08:15 JST, 8 days after the event) and confirming its text, date, location, program elements, and photos. IMPORTANT BOUNDARY (spec §10.3): confidence A applies ONLY to event_exists/event_date/event_location/event_activities — it does NOT extend to the venue's spatial layout (tent/stage/booth positions, attendance, vehicle placement, weather, exact schedule), which remain Unknown and are deliberately NOT rendered as any 3D object. Other-year event records (2009, 2013) were not used to fill these gaps, per spec §10.4.\n\n2026年追記: 当事者（当時 緑小学校の児童）の証言により、会場が駅前広場であること、そこに舞台があること、クマゲラ太鼓がその舞台の前で演奏されたことを確認した (user_survey)。会場および舞台のジオメトリは OSM / 国土地理院 由来であり、この行事の存在から逆算したものではない (TEMP_EVENT 分離)。なお 2010-05-30 は日曜日で、5月の最終日曜日にあたる — きよさと観光協会が現在も掲げる「毎年5月最終日曜日」という開催規則と整合する。\n\n2026年追記: クマゲラ太鼓が演奏している写真(SRC_KUMAGERA_PHOTO)と、第29回のポスター(SRC_MIDORI_FESTIVAL_POSTER_2017)を得た。ポスターの記載は「第29回／平成29年5月28日(日) 10時〜14時／場所 清里町緑駅前広場／主催 みどりのフェスティバル実行委員会」。会場が駅前広場であることが実行委員会自身の掲示で裏付けられた。第29回が2017年であれば第1回は1989年で、毎年途切れず開催されていれば2010年は第22回にあたるが、これは未検証の仮定なので回次はデータに書かない。開催時間帯 10:00〜14:00 も2017年の値であり、2010年に同じだった保証はない。写真からは器物（太鼓・台・幟）の形だけを取り、会場内のどこに何が置かれていたか（天幕・拡声器・車輌の位置）は依然として不明のまま3Dにしていない。写真には顔の判別できる児童が複数写っており、人物は複製も記述も造形もしない。",
        "venue_ids": [
          "STR_MIDORI_STATION_SQUARE",
          "STR_MIDORI_STAGE"
        ]
      }
    }
  ]
}