{
  "type": "FeatureCollection",
  "features": [
    {
      "type": "Feature",
      "geometry": {
        "type": "Point",
        "coordinates": [
          144.50575,
          43.71802
        ]
      },
      "properties": {
        "id": "LOC_MIDORI_STATION",
        "name": "緑駅",
        "name_en": "Midori Station",
        "operator": "北海道旅客鉄道",
        "line": "釧網線",
        "confidence": "A",
        "historical_status": "confirmed",
        "source_ids": [
          "SRC_MLIT_KSJ_N02_2008",
          "SRC_MLIT_KSJ_N02_2011",
          "SRC_WIKIDATA_Q8191033"
        ],
        "note": "Position from MLIT KSJ N02 station point, byte-identical across the 2008 and 2011 editions (bracketing 2010-05-30). ~35m from the earlier Wikidata-derived estimate (SRC_WIKIDATA_Q8191033), kept as a secondary corroborating source.",
        "evidence_type": "public_gis"
      }
    },
    {
      "type": "Feature",
      "geometry": {
        "type": "Point",
        "coordinates": [
          144.506286,
          43.7180035
        ]
      },
      "properties": {
        "id": "LOC_MIDORI_STATION_PLAZA",
        "name": "緑駅前広場",
        "name_en": "Midori Station Plaza",
        "confidence": "B",
        "historical_status": "unknown",
        "existence": "confirmed",
        "geometry_note": "範囲は STR_MIDORI_PLAZA (OSM「緑駅前広場パークゴルフ場」外形、計 10015 m²) を参照。以前の「実測された範囲は存在しない」という状態は解消したが、外形はOSMのトレースであって測量ではない。",
        "source_ids": [
          "SRC_OSM_OVERPASS",
          "SRC_USER_TESTIMONY_2026"
        ],
        "evidence_type": "public_gis"
      }
    },
    {
      "type": "Feature",
      "geometry": {
        "type": "Point",
        "coordinates": [
          144.505676,
          43.719922
        ]
      },
      "properties": {
        "id": "FACILITY_MIDORINOYU",
        "name": "緑の湯",
        "name_en": "Midorinoyu (onsen)",
        "address": "清里町緑町26番地",
        "phone": "0152-27-5511",
        "opened": "平成11年 (1999)",
        "confidence": "B",
        "historical_status": "plausible",
        "existence": "probable",
        "existence_confidence": "B",
        "geometry_confidence": "B",
        "geometry_note": "Directive 09.1: replaced with a real WGS84 coordinate the operator read off Google Maps (evidence_type user_survey) -- 211m north / 6m east of the station, consistent with the town site's 'JR緑駅から徒歩3分' description. The earlier direction-unsourced ~65m NW distance-only estimate (Directive 04) is retired; see evidence/removed_coordinates.json.",
        "source_ids": [
          "SRC_KIYOSATO_TOWN_MIDORINOYU",
          "SRC_USER_GEOCODE_MIDORINOYU"
        ],
        "evidence_type": "official_record"
      }
    }
  ]
}
