{
  "type": "FeatureCollection",
  "features": [
    {
      "type": "Feature",
      "geometry": {
        "type": "LineString",
        "coordinates": [
          [
            144.50575,
            43.71802
          ],
          [
            144.50527,
            43.71855
          ]
        ]
      },
      "properties": {
        "id": "RAIL_SENMO_KSJ_000",
        "name": "釧網線 (station_to_junction_north)",
        "operator": "北海道旅客鉄道",
        "line_class_code": "2",
        "confidence": "A",
        "historical_status": "confirmed",
        "source_ids": [
          "SRC_MLIT_KSJ_N02_2008",
          "SRC_MLIT_KSJ_N02_2011"
        ],
        "note": "Geometry from MLIT KSJ N02 railway dataset, editions 2008 (N02-08) and 2011 (N02-11) — byte-identical across both editions for this line, which bracket the World's 2010-05-30 target date. Clipped to within ~2.5km of the World origin.",
        "evidence_type": "public_gis"
      }
    },
    {
      "type": "Feature",
      "geometry": {
        "type": "LineString",
        "coordinates": [
          [
            144.50527,
            43.71855
          ],
          [
            144.50431,
            43.71962
          ],
          [
            144.50385,
            43.72014
          ],
          [
            144.50373,
            43.72031
          ],
          [
            144.50361,
            43.72053
          ],
          [
            144.50352,
            43.72082
          ],
          [
            144.50348,
            43.72097
          ],
          [
            144.5034,
            43.72131
          ],
          [
            144.50338,
            43.72153
          ],
          [
            144.50338,
            43.72178
          ],
          [
            144.50339,
            43.722
          ],
          [
            144.50342,
            43.72234
          ],
          [
            144.50351,
            43.72363
          ],
          [
            144.50361,
            43.72493
          ],
          [
            144.5037,
            43.72625
          ],
          [
            144.50375,
            43.72701
          ],
          [
            144.50378,
            43.72754
          ],
          [
            144.50387,
            43.72865
          ],
          [
            144.50393,
            43.72958
          ],
          [
            144.504,
            43.73049
          ],
          [
            144.50406,
            43.73134
          ],
          [
            144.50412,
            43.73216
          ],
          [
            144.50418,
            43.7329
          ],
          [
            144.50422,
            43.73359
          ],
          [
            144.50426,
            43.73414
          ],
          [
            144.50432,
            43.73505
          ],
          [
            144.50438,
            43.73594
          ],
          [
            144.50438,
            43.73601
          ],
          [
            144.50445,
            43.73685
          ],
          [
            144.50451,
            43.73774
          ],
          [
            144.50458,
            43.73864
          ],
          [
            144.50465,
            43.73955
          ],
          [
            144.50471,
            43.74045
          ],
          [
            144.50473,
            43.74089
          ]
        ]
      },
      "properties": {
        "id": "RAIL_SENMO_KSJ_001",
        "name": "釧網線 (toward_sattsuru_north_of_junction)",
        "operator": "北海道旅客鉄道",
        "line_class_code": "2",
        "confidence": "A",
        "historical_status": "confirmed",
        "source_ids": [
          "SRC_MLIT_KSJ_N02_2008",
          "SRC_MLIT_KSJ_N02_2011"
        ],
        "note": "Geometry from MLIT KSJ N02 railway dataset, editions 2008 (N02-08) and 2011 (N02-11) — byte-identical across both editions for this line, which bracket the World's 2010-05-30 target date. Clipped to within ~2.5km of the World origin.",
        "evidence_type": "public_gis"
      }
    },
    {
      "type": "Feature",
      "geometry": {
        "type": "LineString",
        "coordinates": [
          [
            144.51278,
            43.69608
          ],
          [
            144.51341,
            43.69699
          ],
          [
            144.51541,
            43.69988
          ],
          [
            144.5156,
            43.70017
          ],
          [
            144.51577,
            43.70046
          ],
          [
            144.51587,
            43.70068
          ],
          [
            144.51602,
            43.70109
          ],
          [
            144.51614,
            43.70158
          ],
          [
            144.51616,
            43.70222
          ],
          [
            144.51614,
            43.70265
          ],
          [
            144.51609,
            43.70294
          ],
          [
            144.51603,
            43.70321
          ],
          [
            144.51593,
            43.70356
          ],
          [
            144.51584,
            43.70381
          ],
          [
            144.5157,
            43.70415
          ],
          [
            144.51555,
            43.70445
          ],
          [
            144.51543,
            43.70469
          ],
          [
            144.51454,
            43.7063
          ],
          [
            144.51435,
            43.70664
          ],
          [
            144.51417,
            43.707
          ],
          [
            144.51335,
            43.70853
          ],
          [
            144.51276,
            43.70963
          ],
          [
            144.51228,
            43.71042
          ],
          [
            144.51212,
            43.71064
          ],
          [
            144.51167,
            43.71127
          ],
          [
            144.5111,
            43.71197
          ],
          [
            144.5101,
            43.7131
          ],
          [
            144.50826,
            43.71517
          ],
          [
            144.50688,
            43.71673
          ],
          [
            144.50575,
            43.71802
          ]
        ]
      },
      "properties": {
        "id": "RAIL_SENMO_KSJ_002",
        "name": "釧網線 (toward_south_kawayu_side)",
        "operator": "北海道旅客鉄道",
        "line_class_code": "2",
        "confidence": "A",
        "historical_status": "confirmed",
        "source_ids": [
          "SRC_MLIT_KSJ_N02_2008",
          "SRC_MLIT_KSJ_N02_2011"
        ],
        "note": "Geometry from MLIT KSJ N02 railway dataset, editions 2008 (N02-08) and 2011 (N02-11) — byte-identical across both editions for this line, which bracket the World's 2010-05-30 target date. Clipped to within ~2.5km of the World origin.",
        "evidence_type": "public_gis"
      }
    },
    {
      "type": "Feature",
      "geometry": {
        "type": "LineString",
        "coordinates": [
          [
            144.50686385219245,
            43.71679012153755
          ],
          [
            144.50659697884325,
            43.71701740801596
          ],
          [
            144.50509237730523,
            43.71867873888081
          ],
          [
            144.50491060583218,
            43.71894683106028
          ]
        ]
      },
      "properties": {
        "id": "RAIL_SENMO_MIDORI_TRACK2",
        "name": "釧網本線 緑駅 2番線（交換設備）",
        "confidence": "C",
        "evidence_type": "inference",
        "historical_status": "plausible",
        "source_ids": [
          "SRC_PHOTO_SET_USER_2026",
          "SRC_WIKI_JA_MIDORI",
          "SRC_MLIT_TECH_KAISHAKU",
          "SRC_SHIGARAKI_JISSHI_KIJUN",
          "SRC_GSI_PHOTO_GAZO1"
        ],
        "note": "Wikipedia「緑駅」§駅構造の「相対式ホーム2面2線」と、写真013/014/034に写る2本目の線路による。国土数値情報(KSJ N02)は本線のセンターラインしか持たないため、2番線はここで再構成した。線路中心間隔 4.1 m は省令解釈基準 第22条(1)①の下限 3.6 m（車両限界の基礎限界の最大幅3,000 mm + 600 mm）を満たす国鉄以来の停車場内常用値。両端に8番片開き分岐器相当の開き（1:8、リード 32.8 m）を置き、ホームを含む 220 m を平行区間とした。以前は分岐を持たない平行2直線で、これは鉄道として成立していなかった。分岐器の番数は甲賀市線路構造実施基準 第23条18の「8番以上の片開き」による下限であり、緑駅の実際の番数と交換有効長は文献に当たれていない。分岐器のリードは直線近似で、トングレール・クロッシングの実形状は再現していない。"
      }
    }
  ]
}
