{
  "type": "FeatureCollection",
  "features": [
    {
      "type": "Feature",
      "geometry": {
        "type": "LineString",
        "coordinates": [
          [
            144.4957455,
            43.7250004
          ],
          [
            144.4957374,
            43.7250731
          ],
          [
            144.4957106,
            43.7251622
          ],
          [
            144.4956771,
            43.7252514
          ],
          [
            144.4955496,
            43.725517
          ],
          [
            144.4954853,
            43.7256827
          ],
          [
            144.4954665,
            43.7257534
          ],
          [
            144.4954196,
            43.7259725
          ],
          [
            144.4954115,
            43.7260325
          ],
          [
            144.4954249,
            43.7264289
          ],
          [
            144.4954169,
            43.7265656
          ],
          [
            144.4954048,
            43.727118
          ],
          [
            144.4953968,
            43.7271897
          ],
          [
            144.4953793,
            43.7272856
          ],
          [
            144.4953378,
            43.7274446
          ],
          [
            144.4953217,
            43.7275221
          ]
        ]
      },
      "properties": {
        "id": "WATER_GSI_LINE_001",
        "name": null,
        "water_type": "stream",
        "width_m": 3.6,
        "gsi_ft_code": 5301,
        "confidence": "B",
        "evidence_type": "public_gis",
        "historical_status": "plausible",
        "position_status": "located",
        "source_ids": [
          "SRC_GSI_BVMAP"
        ],
        "detail_confidence": {
          "alignment": "B (public_gis — 国土地理院 電子国土基本図 水涯線 ftCode 5301)",
          "width": "C (inference — 1/25000で単線。二条の岸を持つ幅には達しないという読み)",
          "channel": "not modelled — 地形メッシュは30 mグリッドで、3.6 mの河道は頂点の間に落ちて現れない。高さ関数だけ下げるとメッシュは平らなままプレイヤーが沈む（駅舎が浮いたのと同じ分離）。メッシュに載る幅まで広げれば、DEMが記録していない谷を作ることになる。掘っていない。"
        },
        "note": "scripts/import-rivers.mjs による取り込み。出典: 国土地理院「地理院地図Vector（地理院タイル）」。線形は実測（電子国土基本図）。幅 3.6 m と河床の深さ 1.1 m は実測ではない: 1/25000で水涯線が単線で描かれていることから、二条の岸を持つ幅には達しないと読んだもの。DEM(10 mメッシュ)に河道は刻まれていない。地形の頂点間隔30 mでは3.6 mの河道は表現できないため、河道は掘らずに水面を地表に敷き、縁に濡れた砂利の帯を置いている。無い証拠の地形は作らない。"
      }
    },
    {
      "type": "Feature",
      "geometry": {
        "type": "LineString",
        "coordinates": [
          [
            144.495382,
            43.7233974
          ],
          [
            144.4954424,
            43.7234749
          ],
          [
            144.4955228,
            43.723566
          ],
          [
            144.4955604,
            43.7236222
          ],
          [
            144.4956543,
            43.7238005
          ],
          [
            144.4956931,
            43.7238878
          ],
          [
            144.4957401,
            43.7240632
          ],
          [
            144.4957656,
            43.724228
          ],
          [
            144.495779,
            43.7243724
          ],
          [
            144.4957763,
            43.724635
          ],
          [
            144.4957615,
            43.7248657
          ],
          [
            144.4957455,
            43.7250004
          ]
        ]
      },
      "properties": {
        "id": "WATER_GSI_LINE_002",
        "name": null,
        "water_type": "stream",
        "width_m": 3.6,
        "gsi_ft_code": 5301,
        "confidence": "B",
        "evidence_type": "public_gis",
        "historical_status": "plausible",
        "position_status": "located",
        "source_ids": [
          "SRC_GSI_BVMAP"
        ],
        "detail_confidence": {
          "alignment": "B (public_gis — 国土地理院 電子国土基本図 水涯線 ftCode 5301)",
          "width": "C (inference — 1/25000で単線。二条の岸を持つ幅には達しないという読み)",
          "channel": "not modelled — 地形メッシュは30 mグリッドで、3.6 mの河道は頂点の間に落ちて現れない。高さ関数だけ下げるとメッシュは平らなままプレイヤーが沈む（駅舎が浮いたのと同じ分離）。メッシュに載る幅まで広げれば、DEMが記録していない谷を作ることになる。掘っていない。"
        },
        "note": "scripts/import-rivers.mjs による取り込み。出典: 国土地理院「地理院地図Vector（地理院タイル）」。線形は実測（電子国土基本図）。幅 3.6 m と河床の深さ 1.1 m は実測ではない: 1/25000で水涯線が単線で描かれていることから、二条の岸を持つ幅には達しないと読んだもの。DEM(10 mメッシュ)に河道は刻まれていない。地形の頂点間隔30 mでは3.6 mの河道は表現できないため、河道は掘らずに水面を地表に敷き、縁に濡れた砂利の帯を置いている。無い証拠の地形は作らない。"
      }
    },
    {
      "type": "Feature",
      "geometry": {
        "type": "Polygon",
        "coordinates": [
          [
            [
              144.5095441,
              43.7248754
            ],
            [
              144.509638,
              43.7248647
            ],
            [
              144.5097466,
              43.7247571
            ],
            [
              144.5099866,
              43.7244877
            ],
            [
              144.5100336,
              43.7243917
            ],
            [
              144.5100403,
              43.7243239
            ],
            [
              144.5099089,
              43.7241669
            ],
            [
              144.5098472,
              43.7241281
            ],
            [
              144.5097466,
              43.7240991
            ],
            [
              144.5096527,
              43.7240991
            ],
            [
              144.5095602,
              43.7241388
            ],
            [
              144.5094515,
              43.7242115
            ],
            [
              144.509359,
              43.7243074
            ],
            [
              144.5093054,
              43.7243801
            ],
            [
              144.5093121,
              43.72451
            ],
            [
              144.5094435,
              43.7248027
            ],
            [
              144.5095065,
              43.7248647
            ],
            [
              144.5095441,
              43.7248754
            ]
          ]
        ]
      },
      "properties": {
        "id": "WATER_GSI_AREA_001",
        "name": null,
        "water_type": "pond",
        "gsi_ft_code": 5000,
        "confidence": "B",
        "evidence_type": "public_gis",
        "historical_status": "plausible",
        "position_status": "located",
        "source_ids": [
          "SRC_GSI_BVMAP"
        ],
        "detail_confidence": {
          "outline": "B (public_gis — 国土地理院 電子国土基本図 水域 ftCode 5000)",
          "channel": "not modelled — 地形メッシュは30 mグリッドで、3.6 mの河道は頂点の間に落ちて現れない。高さ関数だけ下げるとメッシュは平らなままプレイヤーが沈む（駅舎が浮いたのと同じ分離）。メッシュに載る幅まで広げれば、DEMが記録していない谷を作ることになる。掘っていない。"
        },
        "note": "scripts/import-rivers.mjs による取り込み。出典: 国土地理院「地理院地図Vector（地理院タイル）」。線形は実測（電子国土基本図）。幅 3.6 m と河床の深さ 1.1 m は実測ではない: 1/25000で水涯線が単線で描かれていることから、二条の岸を持つ幅には達しないと読んだもの。DEM(10 mメッシュ)に河道は刻まれていない。地形の頂点間隔30 mでは3.6 mの河道は表現できないため、河道は掘らずに水面を地表に敷き、縁に濡れた砂利の帯を置いている。無い証拠の地形は作らない。"
      }
    },
    {
      "type": "Feature",
      "geometry": {
        "type": "Polygon",
        "coordinates": [
          [
            [
              144.5095065,
              43.7246224
            ],
            [
              144.5094676,
              43.7245662
            ],
            [
              144.5094676,
              43.7244877
            ],
            [
              144.5095374,
              43.7243578
            ],
            [
              144.5096768,
              43.7242454
            ],
            [
              144.5097546,
              43.7242512
            ],
            [
              144.5098083,
              43.724291
            ],
            [
              144.5098391,
              43.7243297
            ],
            [
              144.5098472,
              43.7243917
            ],
            [
              144.5096916,
              43.7245885
            ],
            [
              144.5096219,
              43.724634
            ],
            [
              144.5095682,
              43.724634
            ],
            [
              144.5095065,
              43.7246224
            ]
          ]
        ]
      },
      "properties": {
        "id": "WATER_GSI_AREA_002",
        "name": null,
        "water_type": "pond",
        "gsi_ft_code": 5000,
        "confidence": "B",
        "evidence_type": "public_gis",
        "historical_status": "plausible",
        "position_status": "located",
        "source_ids": [
          "SRC_GSI_BVMAP"
        ],
        "detail_confidence": {
          "outline": "B (public_gis — 国土地理院 電子国土基本図 水域 ftCode 5000)",
          "channel": "not modelled — 地形メッシュは30 mグリッドで、3.6 mの河道は頂点の間に落ちて現れない。高さ関数だけ下げるとメッシュは平らなままプレイヤーが沈む（駅舎が浮いたのと同じ分離）。メッシュに載る幅まで広げれば、DEMが記録していない谷を作ることになる。掘っていない。"
        },
        "note": "scripts/import-rivers.mjs による取り込み。出典: 国土地理院「地理院地図Vector（地理院タイル）」。線形は実測（電子国土基本図）。幅 3.6 m と河床の深さ 1.1 m は実測ではない: 1/25000で水涯線が単線で描かれていることから、二条の岸を持つ幅には達しないと読んだもの。DEM(10 mメッシュ)に河道は刻まれていない。地形の頂点間隔30 mでは3.6 mの河道は表現できないため、河道は掘らずに水面を地表に敷き、縁に濡れた砂利の帯を置いている。無い証拠の地形は作らない。"
      }
    },
    {
      "type": "Feature",
      "geometry": {
        "type": "LineString",
        "coordinates": [
          [
            144.5112526,
            43.7250004
          ],
          [
            144.511191,
            43.7250101
          ],
          [
            144.5109858,
            43.7250333
          ],
          [
            144.5105056,
            43.7250673
          ],
          [
            144.5101731,
            43.7251118
          ],
          [
            144.5100336,
            43.7251506
          ],
          [
            144.5099008,
            43.725202
          ],
          [
            144.5098431,
            43.7252349
          ],
          [
            144.5098002,
            43.725264
          ],
          [
            144.5096768,
            43.7253871
          ],
          [
            144.5096433,
            43.7254355
          ],
          [
            144.5096138,
            43.7254888
          ],
          [
            144.5095441,
            43.7257195
          ],
          [
            144.5095065,
            43.7259444
          ],
          [
            144.5095038,
            43.7261527
          ],
          [
            144.5094784,
            43.7264299
          ],
          [
            144.5094515,
            43.7265346
          ],
          [
            144.5094408,
            43.7267817
          ],
          [
            144.5094596,
            43.7269125
          ],
          [
            144.5094717,
            43.7269658
          ],
          [
            144.5094985,
            43.7270521
          ],
          [
            144.5096071,
            43.7272827
          ],
          [
            144.5096339,
            43.7273302
          ],
          [
            144.5096608,
            43.7273612
          ],
          [
            144.5096943,
            43.7273923
          ],
          [
            144.5097627,
            43.7274446
          ],
          [
            144.5098659,
            43.7275221
          ]
        ]
      },
      "properties": {
        "id": "WATER_GSI_LINE_003",
        "name": null,
        "water_type": "stream",
        "width_m": 3.6,
        "gsi_ft_code": 5301,
        "confidence": "B",
        "evidence_type": "public_gis",
        "historical_status": "plausible",
        "position_status": "located",
        "source_ids": [
          "SRC_GSI_BVMAP"
        ],
        "detail_confidence": {
          "alignment": "B (public_gis — 国土地理院 電子国土基本図 水涯線 ftCode 5301)",
          "width": "C (inference — 1/25000で単線。二条の岸を持つ幅には達しないという読み)",
          "channel": "not modelled — 地形メッシュは30 mグリッドで、3.6 mの河道は頂点の間に落ちて現れない。高さ関数だけ下げるとメッシュは平らなままプレイヤーが沈む（駅舎が浮いたのと同じ分離）。メッシュに載る幅まで広げれば、DEMが記録していない谷を作ることになる。掘っていない。"
        },
        "note": "scripts/import-rivers.mjs による取り込み。出典: 国土地理院「地理院地図Vector（地理院タイル）」。線形は実測（電子国土基本図）。幅 3.6 m と河床の深さ 1.1 m は実測ではない: 1/25000で水涯線が単線で描かれていることから、二条の岸を持つ幅には達しないと読んだもの。DEM(10 mメッシュ)に河道は刻まれていない。地形の頂点間隔30 mでは3.6 mの河道は表現できないため、河道は掘らずに水面を地表に敷き、縁に濡れた砂利の帯を置いている。無い証拠の地形は作らない。"
      }
    },
    {
      "type": "Feature",
      "geometry": {
        "type": "LineString",
        "coordinates": [
          [
            144.5112526,
            43.7233974
          ],
          [
            144.5112915,
            43.7234749
          ],
          [
            144.5113304,
            43.7235495
          ],
          [
            144.5113666,
            43.7235854
          ],
          [
            144.5114042,
            43.7236106
          ],
          [
            144.5114538,
            43.7236319
          ],
          [
            144.5115101,
            43.7236484
          ],
          [
            144.5115906,
            43.7236658
          ],
          [
            144.5118065,
            43.7236823
          ],
          [
            144.5119232,
            43.7236997
          ],
          [
            144.5120318,
            43.7237453
          ],
          [
            144.5121096,
            43.7237957
          ],
          [
            144.5121793,
            43.7238742
          ],
          [
            144.5122102,
            43.723942
          ],
          [
            144.5122129,
            43.7240903
          ],
          [
            144.5121861,
            43.7241902
          ],
          [
            144.5121472,
            43.7242997
          ],
          [
            144.5120949,
            43.7244228
          ],
          [
            144.5119809,
            43.7246195
          ],
          [
            144.5118695,
            43.7247775
          ],
          [
            144.511769,
            43.7248521
          ],
          [
            144.5116657,
            43.7249054
          ],
          [
            144.5114927,
            43.7249519
          ],
          [
            144.5113465,
            43.7249859
          ],
          [
            144.5112526,
            43.7250004
          ]
        ]
      },
      "properties": {
        "id": "WATER_GSI_LINE_004",
        "name": null,
        "water_type": "stream",
        "width_m": 3.6,
        "gsi_ft_code": 5301,
        "confidence": "B",
        "evidence_type": "public_gis",
        "historical_status": "plausible",
        "position_status": "located",
        "source_ids": [
          "SRC_GSI_BVMAP"
        ],
        "detail_confidence": {
          "alignment": "B (public_gis — 国土地理院 電子国土基本図 水涯線 ftCode 5301)",
          "width": "C (inference — 1/25000で単線。二条の岸を持つ幅には達しないという読み)",
          "channel": "not modelled — 地形メッシュは30 mグリッドで、3.6 mの河道は頂点の間に落ちて現れない。高さ関数だけ下げるとメッシュは平らなままプレイヤーが沈む（駅舎が浮いたのと同じ分離）。メッシュに載る幅まで広げれば、DEMが記録していない谷を作ることになる。掘っていない。"
        },
        "note": "scripts/import-rivers.mjs による取り込み。出典: 国土地理院「地理院地図Vector（地理院タイル）」。線形は実測（電子国土基本図）。幅 3.6 m と河床の深さ 1.1 m は実測ではない: 1/25000で水涯線が単線で描かれていることから、二条の岸を持つ幅には達しないと読んだもの。DEM(10 mメッシュ)に河道は刻まれていない。地形の頂点間隔30 mでは3.6 mの河道は表現できないため、河道は掘らずに水面を地表に敷き、縁に濡れた砂利の帯を置いている。無い証拠の地形は作らない。"
      }
    },
    {
      "type": "Feature",
      "geometry": {
        "type": "LineString",
        "coordinates": [
          [
            144.494057,
            43.7194274
          ],
          [
            144.494065,
            43.7195049
          ],
          [
            144.4940731,
            43.7196329
          ],
          [
            144.4940825,
            43.7196678
          ],
          [
            144.4940905,
            43.7197298
          ],
          [
            144.4940999,
            43.7198897
          ],
          [
            144.494108,
            43.7201476
          ],
          [
            144.49412,
            43.7203075
          ],
          [
            144.4941308,
            43.7203627
          ],
          [
            144.4941871,
            43.7205275
          ],
          [
            144.4941978,
            43.7205847
          ],
          [
            144.4942018,
            43.7206603
          ],
          [
            144.494226,
            43.7208105
          ],
          [
            144.4942461,
            43.7211934
          ],
          [
            144.4942541,
            43.7215161
          ],
          [
            144.4942608,
            43.7215704
          ],
          [
            144.4942743,
            43.7216315
          ],
          [
            144.4943279,
            43.7218108
          ],
          [
            144.4943748,
            43.7219251
          ],
          [
            144.494407,
            43.7219862
          ],
          [
            144.4946913,
            43.7224543
          ],
          [
            144.4947235,
            43.7224921
          ],
          [
            144.494863,
            43.7226317
          ],
          [
            144.49504,
            43.7228255
          ],
          [
            144.4950856,
            43.7228895
          ],
          [
            144.4951339,
            43.722969
          ],
          [
            144.4952358,
            43.723188
          ],
          [
            144.4953646,
            43.7233731
          ],
          [
            144.4954222,
            43.7234526
          ],
          [
            144.4954424,
            43.7234749
          ],
          [
            144.4955108,
            43.7235524
          ]
        ]
      },
      "properties": {
        "id": "WATER_GSI_LINE_005",
        "name": null,
        "water_type": "stream",
        "width_m": 3.6,
        "gsi_ft_code": 5301,
        "confidence": "B",
        "evidence_type": "public_gis",
        "historical_status": "plausible",
        "position_status": "located",
        "source_ids": [
          "SRC_GSI_BVMAP"
        ],
        "detail_confidence": {
          "alignment": "B (public_gis — 国土地理院 電子国土基本図 水涯線 ftCode 5301)",
          "width": "C (inference — 1/25000で単線。二条の岸を持つ幅には達しないという読み)",
          "channel": "not modelled — 地形メッシュは30 mグリッドで、3.6 mの河道は頂点の間に落ちて現れない。高さ関数だけ下げるとメッシュは平らなままプレイヤーが沈む（駅舎が浮いたのと同じ分離）。メッシュに載る幅まで広げれば、DEMが記録していない谷を作ることになる。掘っていない。"
        },
        "note": "scripts/import-rivers.mjs による取り込み。出典: 国土地理院「地理院地図Vector（地理院タイル）」。線形は実測（電子国土基本図）。幅 3.6 m と河床の深さ 1.1 m は実測ではない: 1/25000で水涯線が単線で描かれていることから、二条の岸を持つ幅には達しないと読んだもの。DEM(10 mメッシュ)に河道は刻まれていない。地形の頂点間隔30 mでは3.6 mの河道は表現できないため、河道は掘らずに水面を地表に敷き、縁に濡れた砂利の帯を置いている。無い証拠の地形は作らない。"
      }
    },
    {
      "type": "Feature",
      "geometry": {
        "type": "LineString",
        "coordinates": [
          [
            144.5125146,
            43.7194274
          ],
          [
            144.5124342,
            43.7195049
          ],
          [
            144.512296,
            43.7196387
          ],
          [
            144.5119567,
            43.7199266
          ],
          [
            144.5118347,
            43.7199925
          ],
          [
            144.5116925,
            43.7200545
          ],
          [
            144.5115745,
            43.7200865
          ],
          [
            144.5114605,
            43.7200894
          ],
          [
            144.5113358,
            43.7200816
          ],
          [
            144.5110957,
            43.7200419
          ],
          [
            144.5108932,
            43.7199934
          ],
          [
            144.5106451,
            43.7199208
          ],
          [
            144.5105097,
            43.7198994
          ],
          [
            144.5104145,
            43.7199014
          ],
          [
            144.5103541,
            43.7199111
          ],
          [
            144.5101409,
            43.7199876
          ],
          [
            144.5098163,
            43.7201514
          ],
          [
            144.5095025,
            43.7203763
          ],
          [
            144.5093027,
            43.720574
          ],
          [
            144.509076,
            43.7207795
          ],
          [
            144.5089178,
            43.7209608
          ],
          [
            144.5088507,
            43.7210625
          ],
          [
            144.5088011,
            43.7211527
          ],
          [
            144.5087622,
            43.7212593
          ],
          [
            144.5087568,
            43.721364
          ],
          [
            144.5087622,
            43.7214618
          ],
          [
            144.5087716,
            43.72152
          ],
          [
            144.508848,
            43.7217255
          ],
          [
            144.5088856,
            43.7217991
          ],
          [
            144.5090801,
            43.721962
          ],
          [
            144.5092276,
            43.7220695
          ],
          [
            144.5094824,
            43.7222207
          ],
          [
            144.5096621,
            43.722306
          ],
          [
            144.5097493,
            43.7223371
          ],
          [
            144.5099477,
            43.7223952
          ],
          [
            144.510444,
            43.7225241
          ],
          [
            144.5107229,
            43.7226482
          ],
          [
            144.5108007,
            43.7226869
          ],
          [
            144.5109402,
            43.7227887
          ],
          [
            144.5109911,
            43.7228449
          ],
          [
            144.5110193,
            43.7228885
          ],
          [
            144.5111413,
            43.7231764
          ],
          [
            144.5112915,
            43.7234749
          ],
          [
            144.5113331,
            43.7235524
          ]
        ]
      },
      "properties": {
        "id": "WATER_GSI_LINE_006",
        "name": null,
        "water_type": "stream",
        "width_m": 3.6,
        "gsi_ft_code": 5301,
        "confidence": "B",
        "evidence_type": "public_gis",
        "historical_status": "plausible",
        "position_status": "located",
        "source_ids": [
          "SRC_GSI_BVMAP"
        ],
        "detail_confidence": {
          "alignment": "B (public_gis — 国土地理院 電子国土基本図 水涯線 ftCode 5301)",
          "width": "C (inference — 1/25000で単線。二条の岸を持つ幅には達しないという読み)",
          "channel": "not modelled — 地形メッシュは30 mグリッドで、3.6 mの河道は頂点の間に落ちて現れない。高さ関数だけ下げるとメッシュは平らなままプレイヤーが沈む（駅舎が浮いたのと同じ分離）。メッシュに載る幅まで広げれば、DEMが記録していない谷を作ることになる。掘っていない。"
        },
        "note": "scripts/import-rivers.mjs による取り込み。出典: 国土地理院「地理院地図Vector（地理院タイル）」。線形は実測（電子国土基本図）。幅 3.6 m と河床の深さ 1.1 m は実測ではない: 1/25000で水涯線が単線で描かれていることから、二条の岸を持つ幅には達しないと読んだもの。DEM(10 mメッシュ)に河道は刻まれていない。地形の頂点間隔30 mでは3.6 mの河道は表現できないため、河道は掘らずに水面を地表に敷き、縁に濡れた砂利の帯を置いている。無い証拠の地形は作らない。"
      }
    },
    {
      "type": "Feature",
      "geometry": {
        "type": "LineString",
        "coordinates": [
          [
            144.4940262,
            43.7187799
          ],
          [
            144.4940154,
            43.7190077
          ],
          [
            144.4939993,
            43.7191676
          ],
          [
            144.4940101,
            43.7192694
          ],
          [
            144.4940516,
            43.7193974
          ],
          [
            144.4940597,
            43.719439
          ],
          [
            144.494065,
            43.7195049
          ],
          [
            144.4940691,
            43.7195825
          ]
        ]
      },
      "properties": {
        "id": "WATER_GSI_LINE_007",
        "name": null,
        "water_type": "stream",
        "width_m": 3.6,
        "gsi_ft_code": 5301,
        "confidence": "B",
        "evidence_type": "public_gis",
        "historical_status": "plausible",
        "position_status": "located",
        "source_ids": [
          "SRC_GSI_BVMAP"
        ],
        "detail_confidence": {
          "alignment": "B (public_gis — 国土地理院 電子国土基本図 水涯線 ftCode 5301)",
          "width": "C (inference — 1/25000で単線。二条の岸を持つ幅には達しないという読み)",
          "channel": "not modelled — 地形メッシュは30 mグリッドで、3.6 mの河道は頂点の間に落ちて現れない。高さ関数だけ下げるとメッシュは平らなままプレイヤーが沈む（駅舎が浮いたのと同じ分離）。メッシュに載る幅まで広げれば、DEMが記録していない谷を作ることになる。掘っていない。"
        },
        "note": "scripts/import-rivers.mjs による取り込み。出典: 国土地理院「地理院地図Vector（地理院タイル）」。線形は実測（電子国土基本図）。幅 3.6 m と河床の深さ 1.1 m は実測ではない: 1/25000で水涯線が単線で描かれていることから、二条の岸を持つ幅には達しないと読んだもの。DEM(10 mメッシュ)に河道は刻まれていない。地形の頂点間隔30 mでは3.6 mの河道は表現できないため、河道は掘らずに水面を地表に敷き、縁に濡れた砂利の帯を置いている。無い証拠の地形は作らない。"
      }
    },
    {
      "type": "Feature",
      "geometry": {
        "type": "LineString",
        "coordinates": [
          [
            144.5128727,
            43.7188875
          ],
          [
            144.5128901,
            43.7189476
          ],
          [
            144.5128834,
            43.7190048
          ],
          [
            144.5128606,
            43.7190659
          ],
          [
            144.5127989,
            43.7191483
          ],
          [
            144.5124342,
            43.7195049
          ],
          [
            144.5123537,
            43.7195825
          ]
        ]
      },
      "properties": {
        "id": "WATER_GSI_LINE_008",
        "name": null,
        "water_type": "stream",
        "width_m": 3.6,
        "gsi_ft_code": 5301,
        "confidence": "B",
        "evidence_type": "public_gis",
        "historical_status": "plausible",
        "position_status": "located",
        "source_ids": [
          "SRC_GSI_BVMAP"
        ],
        "detail_confidence": {
          "alignment": "B (public_gis — 国土地理院 電子国土基本図 水涯線 ftCode 5301)",
          "width": "C (inference — 1/25000で単線。二条の岸を持つ幅には達しないという読み)",
          "channel": "not modelled — 地形メッシュは30 mグリッドで、3.6 mの河道は頂点の間に落ちて現れない。高さ関数だけ下げるとメッシュは平らなままプレイヤーが沈む（駅舎が浮いたのと同じ分離）。メッシュに載る幅まで広げれば、DEMが記録していない谷を作ることになる。掘っていない。"
        },
        "note": "scripts/import-rivers.mjs による取り込み。出典: 国土地理院「地理院地図Vector（地理院タイル）」。線形は実測（電子国土基本図）。幅 3.6 m と河床の深さ 1.1 m は実測ではない: 1/25000で水涯線が単線で描かれていることから、二条の岸を持つ幅には達しないと読んだもの。DEM(10 mメッシュ)に河道は刻まれていない。地形の頂点間隔30 mでは3.6 mの河道は表現できないため、河道は掘らずに水面を地表に敷き、縁に濡れた砂利の帯を置いている。無い証拠の地形は作らない。"
      }
    },
    {
      "type": "Feature",
      "geometry": {
        "type": "LineString",
        "coordinates": [
          [
            144.5096983,
            43.7166669
          ],
          [
            144.5097627,
            43.7167764
          ],
          [
            144.5098083,
            43.7168268
          ],
          [
            144.5098592,
            43.7168617
          ],
          [
            144.5099115,
            43.7168869
          ],
          [
            144.5099786,
            43.7169111
          ],
          [
            144.5104238,
            43.7170565
          ],
          [
            144.5106223,
            43.717136
          ],
          [
            144.5107041,
            43.7171884
          ],
          [
            144.5107538,
            43.7172378
          ],
          [
            144.5108503,
            43.7173599
          ],
          [
            144.5108731,
            43.7174162
          ],
          [
            144.5109013,
            43.7176197
          ],
          [
            144.5109281,
            43.7177632
          ],
          [
            144.5109791,
            43.7178814
          ],
          [
            144.5110327,
            43.7179464
          ],
          [
            144.5111212,
            43.718022
          ],
          [
            144.5114565,
            43.7181984
          ],
          [
            144.5115383,
            43.7182362
          ],
          [
            144.5116201,
            43.7182614
          ],
          [
            144.5117019,
            43.7182711
          ],
          [
            144.5119514,
            43.7182536
          ],
          [
            144.512056,
            43.7182672
          ],
          [
            144.5121525,
            43.7182963
          ],
          [
            144.5122652,
            43.7183457
          ],
          [
            144.5124127,
            43.7184417
          ],
          [
            144.5126528,
            43.7186326
          ],
          [
            144.5128231,
            43.7188061
          ],
          [
            144.5128727,
            43.7188875
          ]
        ]
      },
      "properties": {
        "id": "WATER_GSI_LINE_009",
        "name": null,
        "water_type": "stream",
        "width_m": 3.6,
        "gsi_ft_code": 5301,
        "confidence": "B",
        "evidence_type": "public_gis",
        "historical_status": "plausible",
        "position_status": "located",
        "source_ids": [
          "SRC_GSI_BVMAP"
        ],
        "detail_confidence": {
          "alignment": "B (public_gis — 国土地理院 電子国土基本図 水涯線 ftCode 5301)",
          "width": "C (inference — 1/25000で単線。二条の岸を持つ幅には達しないという読み)",
          "channel": "not modelled — 地形メッシュは30 mグリッドで、3.6 mの河道は頂点の間に落ちて現れない。高さ関数だけ下げるとメッシュは平らなままプレイヤーが沈む（駅舎が浮いたのと同じ分離）。メッシュに載る幅まで広げれば、DEMが記録していない谷を作ることになる。掘っていない。"
        },
        "note": "scripts/import-rivers.mjs による取り込み。出典: 国土地理院「地理院地図Vector（地理院タイル）」。線形は実測（電子国土基本図）。幅 3.6 m と河床の深さ 1.1 m は実測ではない: 1/25000で水涯線が単線で描かれていることから、二条の岸を持つ幅には達しないと読んだもの。DEM(10 mメッシュ)に河道は刻まれていない。地形の頂点間隔30 mでは3.6 mの河道は表現できないため、河道は掘らずに水面を地表に敷き、縁に濡れた砂利の帯を置いている。無い証拠の地形は作らない。"
      }
    },
    {
      "type": "Feature",
      "geometry": {
        "type": "LineString",
        "coordinates": [
          [
            144.5094582,
            43.7154572
          ],
          [
            144.5094328,
            43.7155347
          ],
          [
            144.509367,
            43.7157247
          ],
          [
            144.5093657,
            43.7160145
          ],
          [
            144.5093898,
            43.7161522
          ],
          [
            144.5094194,
            43.7162443
          ],
          [
            144.5094515,
            43.716315
          ],
          [
            144.5094904,
            43.7163829
          ],
          [
            144.5095964,
            43.7165011
          ],
          [
            144.5096245,
            43.7165409
          ],
          [
            144.5096983,
            43.7166669
          ]
        ]
      },
      "properties": {
        "id": "WATER_GSI_LINE_010",
        "name": null,
        "water_type": "stream",
        "width_m": 3.6,
        "gsi_ft_code": 5301,
        "confidence": "B",
        "evidence_type": "public_gis",
        "historical_status": "plausible",
        "position_status": "located",
        "source_ids": [
          "SRC_GSI_BVMAP"
        ],
        "detail_confidence": {
          "alignment": "B (public_gis — 国土地理院 電子国土基本図 水涯線 ftCode 5301)",
          "width": "C (inference — 1/25000で単線。二条の岸を持つ幅には達しないという読み)",
          "channel": "not modelled — 地形メッシュは30 mグリッドで、3.6 mの河道は頂点の間に落ちて現れない。高さ関数だけ下げるとメッシュは平らなままプレイヤーが沈む（駅舎が浮いたのと同じ分離）。メッシュに載る幅まで広げれば、DEMが記録していない谷を作ることになる。掘っていない。"
        },
        "note": "scripts/import-rivers.mjs による取り込み。出典: 国土地理院「地理院地図Vector（地理院タイル）」。線形は実測（電子国土基本図）。幅 3.6 m と河床の深さ 1.1 m は実測ではない: 1/25000で水涯線が単線で描かれていることから、二条の岸を持つ幅には達しないと読んだもの。DEM(10 mメッシュ)に河道は刻まれていない。地形の頂点間隔30 mでは3.6 mの河道は表現できないため、河道は掘らずに水面を地表に敷き、縁に濡れた砂利の帯を置いている。無い証拠の地形は作らない。"
      }
    },
    {
      "type": "Feature",
      "geometry": {
        "type": "LineString",
        "coordinates": [
          [
            144.5131356,
            43.7114867
          ],
          [
            144.5126447,
            43.7115458
          ],
          [
            144.5125844,
            43.7115642
          ],
          [
            144.5123738,
            43.7116302
          ],
          [
            144.5123135,
            43.7116641
          ],
          [
            144.5122571,
            43.7117087
          ],
          [
            144.5122182,
            43.7117639
          ],
          [
            144.5121847,
            43.711826
          ],
          [
            144.512115,
            43.7120557
          ],
          [
            144.5120962,
            43.7122438
          ],
          [
            144.5121016,
            43.7123107
          ],
          [
            144.5121257,
            43.7124735
          ],
          [
            144.5121324,
            43.7125753
          ],
          [
            144.5121284,
            43.7126228
          ],
          [
            144.5121096,
            43.7126761
          ],
          [
            144.51206,
            43.7127828
          ],
          [
            144.5120171,
            43.7128448
          ],
          [
            144.5119755,
            43.7128923
          ],
          [
            144.5118695,
            43.7129795
          ],
          [
            144.5116214,
            43.7131152
          ],
          [
            144.5113599,
            43.7133091
          ],
          [
            144.5112593,
            43.7134274
          ],
          [
            144.5111588,
            43.7135059
          ],
          [
            144.5110099,
            43.713565
          ],
          [
            144.510684,
            43.7137056
          ],
          [
            144.5106143,
            43.7137502
          ],
          [
            144.5105579,
            43.7137977
          ],
          [
            144.5105056,
            43.7138568
          ],
          [
            144.5102736,
            43.7142
          ],
          [
            144.5100872,
            43.7143919
          ],
          [
            144.5098861,
            43.7146226
          ],
          [
            144.5097157,
            43.7148533
          ],
          [
            144.5096152,
            43.7150462
          ],
          [
            144.509524,
            43.7152401
          ],
          [
            144.5094328,
            43.7155347
          ],
          [
            144.5094059,
            43.7156123
          ]
        ]
      },
      "properties": {
        "id": "WATER_GSI_LINE_011",
        "name": null,
        "water_type": "stream",
        "width_m": 3.6,
        "gsi_ft_code": 5301,
        "confidence": "B",
        "evidence_type": "public_gis",
        "historical_status": "plausible",
        "position_status": "located",
        "source_ids": [
          "SRC_GSI_BVMAP"
        ],
        "detail_confidence": {
          "alignment": "B (public_gis — 国土地理院 電子国土基本図 水涯線 ftCode 5301)",
          "width": "C (inference — 1/25000で単線。二条の岸を持つ幅には達しないという読み)",
          "channel": "not modelled — 地形メッシュは30 mグリッドで、3.6 mの河道は頂点の間に落ちて現れない。高さ関数だけ下げるとメッシュは平らなままプレイヤーが沈む（駅舎が浮いたのと同じ分離）。メッシュに載る幅まで広げれば、DEMが記録していない谷を作ることになる。掘っていない。"
        },
        "note": "scripts/import-rivers.mjs による取り込み。出典: 国土地理院「地理院地図Vector（地理院タイル）」。線形は実測（電子国土基本図）。幅 3.6 m と河床の深さ 1.1 m は実測ではない: 1/25000で水涯線が単線で描かれていることから、二条の岸を持つ幅には達しないと読んだもの。DEM(10 mメッシュ)に河道は刻まれていない。地形の頂点間隔30 mでは3.6 mの河道は表現できないため、河道は掘らずに水面を地表に敷き、縁に濡れた砂利の帯を置いている。無い証拠の地形は作らない。"
      }
    },
    {
      "type": "Feature",
      "geometry": {
        "type": "LineString",
        "coordinates": [
          [
            144.5142674,
            43.7111115
          ],
          [
            144.5141602,
            43.7111881
          ],
          [
            144.514136,
            43.7112046
          ],
          [
            144.5139161,
            43.7113151
          ],
          [
            144.5136908,
            43.7113936
          ],
          [
            144.5134266,
            43.7114557
          ],
          [
            144.5130095,
            43.7115003
          ],
          [
            144.5126447,
            43.7115458
          ],
          [
            144.5125844,
            43.7115642
          ],
          [
            144.5123738,
            43.7116302
          ],
          [
            144.5123523,
            43.7116418
          ]
        ]
      },
      "properties": {
        "id": "WATER_GSI_LINE_012",
        "name": null,
        "water_type": "stream",
        "width_m": 3.6,
        "gsi_ft_code": 5301,
        "confidence": "B",
        "evidence_type": "public_gis",
        "historical_status": "plausible",
        "position_status": "located",
        "source_ids": [
          "SRC_GSI_BVMAP"
        ],
        "detail_confidence": {
          "alignment": "B (public_gis — 国土地理院 電子国土基本図 水涯線 ftCode 5301)",
          "width": "C (inference — 1/25000で単線。二条の岸を持つ幅には達しないという読み)",
          "channel": "not modelled — 地形メッシュは30 mグリッドで、3.6 mの河道は頂点の間に落ちて現れない。高さ関数だけ下げるとメッシュは平らなままプレイヤーが沈む（駅舎が浮いたのと同じ分離）。メッシュに載る幅まで広げれば、DEMが記録していない谷を作ることになる。掘っていない。"
        },
        "note": "scripts/import-rivers.mjs による取り込み。出典: 国土地理院「地理院地図Vector（地理院タイル）」。線形は実測（電子国土基本図）。幅 3.6 m と河床の深さ 1.1 m は実測ではない: 1/25000で水涯線が単線で描かれていることから、二条の岸を持つ幅には達しないと読んだもの。DEM(10 mメッシュ)に河道は刻まれていない。地形の頂点間隔30 mでは3.6 mの河道は表現できないため、河道は掘らずに水面を地表に敷き、縁に濡れた砂利の帯を置いている。無い証拠の地形は作らない。"
      }
    },
    {
      "type": "Feature",
      "geometry": {
        "type": "LineString",
        "coordinates": [
          [
            144.5156997,
            43.7083342
          ],
          [
            144.5155375,
            43.7085416
          ],
          [
            144.5154396,
            43.7088344
          ],
          [
            144.5152867,
            43.7091611
          ],
          [
            144.5152183,
            43.7094248
          ],
          [
            144.5151888,
            43.7095101
          ],
          [
            144.5151432,
            43.7096051
          ],
          [
            144.5150587,
            43.7097127
          ],
          [
            144.5149876,
            43.7097718
          ],
          [
            144.5147449,
            43.7099424
          ],
          [
            144.5146899,
            43.7099967
          ],
          [
            144.5146282,
            43.7100665
          ],
          [
            144.5145665,
            43.7101732
          ],
          [
            144.5145357,
            43.7102798
          ],
          [
            144.5144659,
            43.7107752
          ],
          [
            144.5144445,
            43.7108721
          ],
          [
            144.5144083,
            43.7109545
          ],
          [
            144.5142902,
            43.7110951
          ],
          [
            144.5141602,
            43.7111881
          ],
          [
            144.514136,
            43.7112046
          ],
          [
            144.5140529,
            43.7112473
          ]
        ]
      },
      "properties": {
        "id": "WATER_GSI_LINE_013",
        "name": null,
        "water_type": "stream",
        "width_m": 3.6,
        "gsi_ft_code": 5301,
        "confidence": "B",
        "evidence_type": "public_gis",
        "historical_status": "plausible",
        "position_status": "located",
        "source_ids": [
          "SRC_GSI_BVMAP"
        ],
        "detail_confidence": {
          "alignment": "B (public_gis — 国土地理院 電子国土基本図 水涯線 ftCode 5301)",
          "width": "C (inference — 1/25000で単線。二条の岸を持つ幅には達しないという読み)",
          "channel": "not modelled — 地形メッシュは30 mグリッドで、3.6 mの河道は頂点の間に落ちて現れない。高さ関数だけ下げるとメッシュは平らなままプレイヤーが沈む（駅舎が浮いたのと同じ分離）。メッシュに載る幅まで広げれば、DEMが記録していない谷を作ることになる。掘っていない。"
        },
        "note": "scripts/import-rivers.mjs による取り込み。出典: 国土地理院「地理院地図Vector（地理院タイル）」。線形は実測（電子国土基本図）。幅 3.6 m と河床の深さ 1.1 m は実測ではない: 1/25000で水涯線が単線で描かれていることから、二条の岸を持つ幅には達しないと読んだもの。DEM(10 mメッシュ)に河道は刻まれていない。地形の頂点間隔30 mでは3.6 mの河道は表現できないため、河道は掘らずに水面を地表に敷き、縁に濡れた砂利の帯を置いている。無い証拠の地形は作らない。"
      }
    },
    {
      "type": "Feature",
      "geometry": {
        "type": "LineString",
        "coordinates": [
          [
            144.515862,
            43.7075159
          ],
          [
            144.5159344,
            43.7075935
          ],
          [
            144.5159921,
            43.7076536
          ],
          [
            144.516027,
            43.7077021
          ],
          [
            144.5160551,
            43.7077486
          ],
          [
            144.5160726,
            43.7077864
          ],
          [
            144.5160846,
            43.7078339
          ],
          [
            144.5160887,
            43.7079018
          ],
          [
            144.5160846,
            43.7079464
          ],
          [
            144.5160712,
            43.7079939
          ],
          [
            144.516023,
            43.7080676
          ],
          [
            144.5159304,
            43.7081548
          ],
          [
            144.5157132,
            43.7083177
          ],
          [
            144.5156997,
            43.7083342
          ]
        ]
      },
      "properties": {
        "id": "WATER_GSI_LINE_014",
        "name": null,
        "water_type": "stream",
        "width_m": 3.6,
        "gsi_ft_code": 5301,
        "confidence": "B",
        "evidence_type": "public_gis",
        "historical_status": "plausible",
        "position_status": "located",
        "source_ids": [
          "SRC_GSI_BVMAP"
        ],
        "detail_confidence": {
          "alignment": "B (public_gis — 国土地理院 電子国土基本図 水涯線 ftCode 5301)",
          "width": "C (inference — 1/25000で単線。二条の岸を持つ幅には達しないという読み)",
          "channel": "not modelled — 地形メッシュは30 mグリッドで、3.6 mの河道は頂点の間に落ちて現れない。高さ関数だけ下げるとメッシュは平らなままプレイヤーが沈む（駅舎が浮いたのと同じ分離）。メッシュに載る幅まで広げれば、DEMが記録していない谷を作ることになる。掘っていない。"
        },
        "note": "scripts/import-rivers.mjs による取り込み。出典: 国土地理院「地理院地図Vector（地理院タイル）」。線形は実測（電子国土基本図）。幅 3.6 m と河床の深さ 1.1 m は実測ではない: 1/25000で水涯線が単線で描かれていることから、二条の岸を持つ幅には達しないと読んだもの。DEM(10 mメッシュ)に河道は刻まれていない。地形の頂点間隔30 mでは3.6 mの河道は表現できないため、河道は掘らずに水面を地表に敷き、縁に濡れた砂利の帯を置いている。無い証拠の地形は作らない。"
      }
    }
  ]
}
